0 BREEZE-M DEB
1 38898U 12044AF  13282.04714380  .00153021  56416-5  38751-2 0  4158
2 38898 049.9793 293.1016 2082497 146.2200 229.0744 11.29137118 38652
0 BREEZE-M DEB
1 38898U 12044AF  13282.40111667  .00160791  58266-5  40676-2 0  4164
2 38898 049.9792 292.1531 2081820 147.0023 227.9966 11.29286771 38690
0 BREEZE-M DEB
1 38898U 12044AF  13283.10893137  .00147463  54977-5  37355-2 0  4178
2 38898 049.9790 290.2555 2080820 148.5823 225.8110 11.29485887 38772
0 BREEZE-M DEB
1 38898U 12044AF  13284.17040948  .00143975  54016-5  36486-2 0  4183
2 38898 049.9785 287.4086 2079497 150.9477 222.5120 11.29758205 38898
0 BREEZE-M DEB
1 38898U 12044AF  13285.76213507  .00135906  51997-5  34443-2 0  4206
2 38898 049.9777 283.1376 2077518 154.4866 217.5165 11.30175627 39074
0 BREEZE-M DEB
1 38898U 12044AF  13286.38097950  .00130432  50756-5  33085-2 0  4210
2 38898 049.9773 281.4759 2076772 155.8649 215.5529 11.30323745 39147
0 BREEZE-M DEB
1 38898U 12044AF  13287.44165681  .00142368  53085-5  36087-2 0  4220
2 38898 049.9769 278.6270 2075550 158.2249 212.1695 11.30576753 39263
0 BREEZE-M DEB
1 38898U 12044AF  13288.06026319  .00179408  62225-5  45344-2 0  4231
2 38898 049.9767 276.9650 2074663 159.5992 210.1864 11.30776717 39333
0 BREEZE-M DEB
1 38898U 12044AF  13289.12045871  .00159521  56815-5  40323-2 0  4248
2 38898 049.9768 274.1147 2073106 161.9614 206.7594 11.31110104 39451
0 BREEZE-M DEB
1 38898U 12044AF  13290.09204863  .00155538  55658-5  39259-2 0  4259
2 38898 049.9769 271.5012 2071952 164.1273 203.5999 11.31372323 39566
0 BREEZE-M DEB
1 38898U 12044AF  13290.53361721  .00113707  00000-0  28535-2 0  4270
2 38898 049.9767 270.3134 2071080 165.1153 202.1974 11.31508292 39616
0 BREEZE-M DEB
1 38898U 12044AF  13291.15169645  .00147475  53564-5  37184-2 0  4266
2 38898 049.9770 268.6498 2070582 166.4889 200.1367 11.31677271 39684
0 BREEZE-M DEB
1 38898U 12044AF  13292.38759449  .00149407  53770-5  37610-2 0  4270
2 38898 049.9773 265.3228 2069054 169.2470 196.0727 11.32015479 39827
0 BREEZE-M DEB
1 38898U 12044AF  13293.09365631  .00143589  52305-5  36118-2 0  4286
2 38898 049.9776 263.4212 2068244 170.8250 193.7399 11.32198426 39908
0 BREEZE-M DEB
1 38898U 12044AF  13293.35839841  .00154455  54766-5  38806-2 0  4298
2 38898 049.9776 262.7080 2067917 171.4161 192.8647 11.32274451 39939
0 BREEZE-M DEB
1 38898U 12044AF  13294.06429746  .00149039  53346-5  37413-2 0  4306
2 38898 049.9777 260.8061 2067133 172.9938 190.5262 11.32452733 40016
0 BREEZE-M DEB
1 38898U 12044AF  13294.32897694  .00160091  55947-5  40146-2 0  4314
2 38898 049.9776 260.0927 2066784 173.5859 189.6475 11.32532009 40041
0 BREEZE-M DEB
1 38898U 12044AF  13295.12291709  .00153916  54278-5  38550-2 0  4329
2 38898 049.9777 257.9525 2065900 175.3612 187.0109 11.32736283 40133
0 BREEZE-M DEB
1 38898U 12044AF  13295.38753350  .00167394  57593-5  41878-2 0  4338
2 38898 049.9777 257.2395 2065500 175.9508 186.1345 11.32826809 40166
0 BREEZE-M DEB
1 38898U 12044AF  13295.82852083  .00159404  55474-5  39867-2 0  4345
2 38898 049.9776 256.0506 2065000 176.9342 184.6725 11.32939517 40210
